{"type": "FeatureCollection", "features": [ {"type": "Feature", "properties": {"norad_id": 44622, "name": "GAOFEN-10R", "group": "resource", "lat": 25.162865586494785, "lon": -74.91641700302517, "alt_km": 614.981665058187, "timestamp": "2025-12-07T09:35:09.449785+00:00", "meta": {"OBJECT_NAME": "GAOFEN-10R", "OBJECT_ID": "2019-066A", "EPOCH": "2025-12-06T22:08:04.801056", "MEAN_MOTION": 14.82760913, "ECCENTRICITY": 0.00081576, "INCLINATION": 98.0273, "RA_OF_ASC_NODE": 288.4059, "ARG_OF_PERICENTER": 57.9146, "MEAN_ANOMALY": 302.2858, "EPHEMERIS_TYPE": 0, "CLASSIFICATION_TYPE": "U", "NORAD_CAT_ID": 44622, "ELEMENT_SET_NO": 999, "REV_AT_EPOCH": 33388, "BSTAR": 0.00038606337, "MEAN_MOTION_DOT": 3.067e-05, "MEAN_MOTION_DDOT": 0}, "tle": {"line1": "1 44622U 19066A   25340.92227779  .00003067  00000+0  38606-3 0  9990", "line2": "2 44622  98.0273 288.4059 0008157  57.9146 302.2858 14.82760913333882"}}, "geometry": {"type": "Point", "coordinates": [-74.91641700302517, 25.162865586494785]}}, {"type": "Feature", "properties": {"norad_id": 44804, "name": "CARTOSAT-3", "group": "resource", "lat": -28.215680878540535, "lon": -142.98078867622542, "alt_km": 516.2848055077375, "timestamp": "2025-12-07T09:35:09.449795+00:00", "meta": {"OBJECT_NAME": "CARTOSAT-3", "OBJECT_ID": "2019-081A", "EPOCH": "2025-12-06T23:11:19.970304", "MEAN_MOTION": 15.19297538, "ECCENTRICITY": 0.00139526, "INCLINATION": 97.459, "RA_OF_ASC_NODE": 40.6224, "ARG_OF_PERICENTER": 105.1523, "MEAN_ANOMALY": 255.1256, "EPHEMERIS_TYPE": 0, "CLASSIFICATION_TYPE": "U", "NORAD_CAT_ID": 44804, "ELEMENT_SET_NO": 999, "REV_AT_EPOCH": 33428, "BSTAR": 0.00034605424, "MEAN_MOTION_DOT": 7.255e-05, "MEAN_MOTION_DDOT": 0}, "tle": {"line1": "1 44804U 19081A   25340.96620336  .00007255  00000+0  34605-3 0  9997", "line2": "2 44804  97.4590  40.6224 0013952 105.1523 255.1256 15.19297538334287"}}, "geometry": {"type": "Point", "coordinates": [-142.98078867622542, -28.215680878540535]}}, {"type": "Feature", "properties": {"norad_id": 44819, "name": "GAOFEN-12 01", "group": "resource", "lat": -26.32697769380879, "lon": -8.283901138990421, "alt_km": 632.6112563003326, "timestamp": "2025-12-07T09:35:09.449805+00:00", "meta": {"OBJECT_NAME": "GAOFEN-12 01", "OBJECT_ID": "2019-082A", "EPOCH": "2025-12-06T22:21:08.906976", "MEAN_MOTION": 14.80646937, "ECCENTRICITY": 0.00011877, "INCLINATION": 97.8125, "RA_OF_ASC_NODE": 347.3648, "ARG_OF_PERICENTER": 273.3937, "MEAN_ANOMALY": 86.7139, "EPHEMERIS_TYPE": 0, "CLASSIFICATION_TYPE": "U", "NORAD_CAT_ID": 44819, "ELEMENT_SET_NO": 999, "REV_AT_EPOCH": 32564, "BSTAR": 0.00012996276, "MEAN_MOTION_DOT": 9.47e-06, "MEAN_MOTION_DDOT": 0}, "tle": {"line1": "1 44819U 19082A   25340.93135309  .00000947  00000+0  12996-3 0  9992", "line2": "2 44819  97.8125 347.3648 0001187 273.3937  86.7139 14.80646937325648"}}, "geometry": {"type": "Point", "coordinates": [-8.283901138990421, -26.32697769380879]}}, {"type": "Feature", "properties": {"norad_id": 44873, "name": "CSG-1", "group": "resource", "lat": 54.65327321512711, "lon": 151.5413496606996, "alt_km": 616.4762454686661, "timestamp": "2025-12-07T09:35:09.449816+00:00", "meta": {"OBJECT_NAME": "CSG-1", "OBJECT_ID": "2019-092A", "EPOCH": "2025-12-06T21:59:41.939232", "MEAN_MOTION": 14.8215152, "ECCENTRICITY": 0.00014628, "INCLINATION": 97.8813, "RA_OF_ASC_NODE": 162.3283, "ARG_OF_PERICENTER": 86.1772, "MEAN_ANOMALY": 273.9608, "EPHEMERIS_TYPE": 0, "CLASSIFICATION_TYPE": "U", "NORAD_CAT_ID": 44873, "ELEMENT_SET_NO": 999, "REV_AT_EPOCH": 32299, "BSTAR": 0.00015222153, "MEAN_MOTION_DOT": 1.16e-05, "MEAN_MOTION_DDOT": 0}, "tle": {"line1": "1 44873U 19092A   25340.91645763  .00001160  00000+0  15222-3 0  9994", "line2": "2 44873  97.8813 162.3283 0001462  86.1772 273.9608 14.82151520322992"}}, "geometry": {"type": "Point", "coordinates": [151.5413496606996, 54.65327321512711]}}, {"type": "Feature", "properties": {"norad_id": 46277, "name": "NEMO-HD", "group": "resource", "lat": 0.29745226371053657, "lon": -139.3961603241521, "alt_km": 449.4048852969845, "timestamp": "2025-12-07T09:35:09.449826+00:00", "meta": {"OBJECT_NAME": "NEMO-HD", "OBJECT_ID": "2020-061F", "EPOCH": "2025-12-06T21:53:37.578336", "MEAN_MOTION": 15.40149485, "ECCENTRICITY": 0.0002185, "INCLINATION": 97.2217, "RA_OF_ASC_NODE": 40.0852, "ARG_OF_PERICENTER": 63.5057, "MEAN_ANOMALY": 296.6414, "EPHEMERIS_TYPE": 0, "CLASSIFICATION_TYPE": "U", "NORAD_CAT_ID": 46277, "ELEMENT_SET_NO": 999, "REV_AT_EPOCH": 29234, "BSTAR": 0.00038600404, "MEAN_MOTION_DOT": 0.00015408, "MEAN_MOTION_DDOT": 0}, "tle": {"line1": "1 46277U 20061F   25340.91224049  .00015408  00000+0  38600-3 0  9997", "line2": "2 46277  97.2217  40.0852 0002185  63.5057 296.6414 15.40149485292340"}}, "geometry": {"type": "Point", "coordinates": [-139.3961603241521, 0.29745226371053657]}}, {"type": "Feature", "properties": {"norad_id": 46984, "name": "SENTINEL-6A", "group": "resource", "lat": -39.88587828235192, "lon": 151.58603057056618, "alt_km": 1339.1538275166022, "timestamp": "2025-12-07T09:35:09.449836+00:00", "meta": {"OBJECT_NAME": "SENTINEL-6A", "OBJECT_ID": "2020-086A", "EPOCH": "2025-12-06T22:34:30.091584", "MEAN_MOTION": 12.80930313, "ECCENTRICITY": 0.00077413, "INCLINATION": 66.0392, "RA_OF_ASC_NODE": 174.3533, "ARG_OF_PERICENTER": 269.2083, "MEAN_ANOMALY": 90.8045, "EPHEMERIS_TYPE": 0, "CLASSIFICATION_TYPE": "U", "NORAD_CAT_ID": 46984, "ELEMENT_SET_NO": 999, "REV_AT_EPOCH": 23570, "BSTAR": 6.0615215e-05, "MEAN_MOTION_DOT": -4.7e-07, "MEAN_MOTION_DDOT": 0}, "tle": {"line1": "1 46984U 20086A   25340.94062606 -.00000047  00000+0  60615-4 0  9997", "line2": "2 46984  66.0392 174.3533 0007741 269.2083  90.8045 12.80930313235707"}}, "geometry": {"type": "Point", "coordinates": [151.58603057056618, -39.88587828235192]}}, {"type": "Feature", "properties": {"norad_id": 48079, "name": "GAOFEN-12 02", "group": "resource", "lat": -15.6111265858754, "lon": -22.32068362815896, "alt_km": 633.4527854456992, "timestamp": "2025-12-07T09:35:09.449847+00:00", "meta": {"OBJECT_NAME": "GAOFEN-12 02", "OBJECT_ID": "2021-026A", "EPOCH": "2025-12-06T22:18:13.922784", "MEAN_MOTION": 14.80664343, "ECCENTRICITY": 0.0003397, "INCLINATION": 97.9848, "RA_OF_ASC_NODE": 334.9638, "ARG_OF_PERICENTER": 112.5658, "MEAN_ANOMALY": 247.5914, "EPHEMERIS_TYPE": 0, "CLASSIFICATION_TYPE": "U", "NORAD_CAT_ID": 48079, "ELEMENT_SET_NO": 999, "REV_AT_EPOCH": 25331, "BSTAR": 0.00013441732, "MEAN_MOTION_DOT": 9.8e-06, "MEAN_MOTION_DDOT": 0}, "tle": {"line1": "1 48079U 21026A   25340.92932781  .00000980  00000+0  13442-3 0  9997", "line2": "2 48079  97.9848 334.9638 0003397 112.5658 247.5914 14.80664343253316"}}, "geometry": {"type": "Point", "coordinates": [-22.32068362815896, -15.6111265858754]}}, {"type": "Feature", "properties": {"norad_id": 48268, "name": "PLEIADES NEO 3", "group": "resource", "lat": 31.713096394935445, "lon": 48.99788376148272, "alt_km": 621.8066244346082, "timestamp": "2025-12-07T09:35:09.449857+00:00", "meta": {"OBJECT_NAME": "PLEIADES NEO 3", "OBJECT_ID": "2021-034A", "EPOCH": "2025-12-06T22:05:46.818528", "MEAN_MOTION": 14.8167615, "ECCENTRICITY": 0.00013443, "INCLINATION": 97.8949, "RA_OF_ASC_NODE": 53.445, "ARG_OF_PERICENTER": 94.8131, "MEAN_ANOMALY": 265.3235, "EPHEMERIS_TYPE": 0, "CLASSIFICATION_TYPE": "U", "NORAD_CAT_ID": 48268, "ELEMENT_SET_NO": 999, "REV_AT_EPOCH": 24918, "BSTAR": 2.712307e-05, "MEAN_MOTION_DOT": 1.61e-06, "MEAN_MOTION_DDOT": 0}, "tle": {"line1": "1 48268U 21034A   25340.92068077  .00000161  00000+0  27123-4 0  9997", "line2": "2 48268  97.8949  53.4450 0001344  94.8131 265.3235 14.81676150249184"}}, "geometry": {"type": "Point", "coordinates": [48.99788376148272, 31.713096394935445]}}, {"type": "Feature", "properties": {"norad_id": 49070, "name": "PLEIADES NEO 4", "group": "resource", "lat": -31.98909998620174, "lon": -131.05976761168955, "alt_km": 630.5790617073171, "timestamp": "2025-12-07T09:35:09.449867+00:00", "meta": {"OBJECT_NAME": "PLEIADES NEO 4", "OBJECT_ID": "2021-073E", "EPOCH": "2025-12-06T21:17:08.524608", "MEAN_MOTION": 14.81672746, "ECCENTRICITY": 0.00012707, "INCLINATION": 97.895, "RA_OF_ASC_NODE": 53.4074, "ARG_OF_PERICENTER": 95.5132, "MEAN_ANOMALY": 264.6226, "EPHEMERIS_TYPE": 0, "CLASSIFICATION_TYPE": "U", "NORAD_CAT_ID": 49070, "ELEMENT_SET_NO": 999, "REV_AT_EPOCH": 23289, "BSTAR": -4.120072e-06, "MEAN_MOTION_DOT": -8.4e-07, "MEAN_MOTION_DDOT": 0}, "tle": {"line1": "1 49070U 21073E   25340.88690422 -.00000084  00000+0 -41201-5 0  9992", "line2": "2 49070  97.8950  53.4074 0001270  95.5132 264.6226 14.81672746232896"}}, "geometry": {"type": "Point", "coordinates": [-131.05976761168955, -31.98909998620174]}}, {"type": "Feature", "properties": {"norad_id": 49260, "name": "LANDSAT 9", "group": "resource", "lat": -19.68090398732558, "lon": 52.547766202840954, "alt_km": 707.928902665305, "timestamp": "2025-12-07T09:35:09.449877+00:00", "meta": {"OBJECT_NAME": "LANDSAT 9", "OBJECT_ID": "2021-088A", "EPOCH": "2025-12-06T22:08:26.318976", "MEAN_MOTION": 14.57121107, "ECCENTRICITY": 0.00011036, "INCLINATION": 98.2101, "RA_OF_ASC_NODE": 49.1177, "ARG_OF_PERICENTER": 94.1258, "MEAN_ANOMALY": 266.0067, "EPHEMERIS_TYPE": 0, "CLASSIFICATION_TYPE": "U", "NORAD_CAT_ID": 49260, "ELEMENT_SET_NO": 999, "REV_AT_EPOCH": 22300, "BSTAR": 0.00019842217, "MEAN_MOTION_DOT": 8.49e-06, "MEAN_MOTION_DDOT": 0}, "tle": {"line1": "1 49260U 21088A   25340.92252684  .00000849  00000+0  19842-3 0  9999", "line2": "2 49260  98.2101  49.1177 0001103  94.1258 266.0067 14.57121107223000"}}, "geometry": {"type": "Point", "coordinates": [52.547766202840954, -19.68090398732558]}}]}